[{"OBJECT_NAME":"STARLINK-34291","OBJECT_ID":"2025-126R","EPOCH":"2026-03-09T07:03:09.205056","MEAN_MOTION":14.98331543,"ECCENTRICITY":0.00027877,"INCLINATION":70.0032,"RA_OF_ASC_NODE":35.4075,"ARG_OF_PERICENTER":257.6195,"MEAN_ANOMALY":102.4652,"EPHEMERIS_TYPE":0,"CLASSIFICATION_TYPE":"U","NORAD_CAT_ID":64359,"ELEMENT_SET_NO":999,"REV_AT_EPOCH":4062,"BSTAR":0.00017897491,"MEAN_MOTION_DOT":2.043e-5,"MEAN_MOTION_DDOT":0},{"OBJECT_NAME":"VANGUARD DEB","OBJECT_ID":"1959-001E","EPOCH":"2026-03-07T12:39:06.509088","MEAN_MOTION":12.4387836,"ECCENTRICITY":0.12157937,"INCLINATION":32.8606,"RA_OF_ASC_NODE":143.872,"ARG_OF_PERICENTER":199.1115,"MEAN_ANOMALY":297.0388,"EPHEMERIS_TYPE":0,"CLASSIFICATION_TYPE":"U","NORAD_CAT_ID":61446,"ELEMENT_SET_NO":999,"REV_AT_EPOCH":97222,"BSTAR":0.0035776478,"MEAN_MOTION_DOT":8.957e-5,"MEAN_MOTION_DDOT":0}]
